NORAD_CAT_ID,OBJECT_NAME,OBJECT_TYPE,EPOCH,MEAN_MOTION,ECCENTRICITY,INCLINATION,RA_OF_ASC_NODE,ARG_OF_PERICENTER,MEAN_ANOMALY,BSTAR,MEAN_MOTION_DOT,MEAN_MOTION_DDOT,TLE_LINE0,TLE_LINE1,TLE_LINE2,SEMIMAJOR_AXIS,PERIOD,APOGEE,PERIGEE,DECAYED
56466.0,STARLINK-6053,PAYLOAD,2024-01-02 09:41:57,14.98331673,0.0003074,69.9997,354.5667,266.9329,93.1478,0.000202,2.318e-05,0.0,0 STARLINK-6053,1 56466U 23064U   24002.40414060  .00002318  00000-0  20200-3 0  9990,2 56466  69.9997 354.5667 0003074 266.9329  93.1478 14.98331673 35820,6950.188,96.107,574.189,569.916,0.0
56466.0,STARLINK-6053,PAYLOAD,2024-01-02 22:31:02,14.98314654,0.0002578,70.0014,353.2209,261.9429,98.1438,0.00030319,3.525e-05,0.0,0 STARLINK-6053,1 56466U 23064U   24002.93822690  .00003525  00000-0  30319-3 0  9993,2 56466  70.0014 353.2209 0002578 261.9429  98.1438 14.98314654 35905,6950.24,96.108,573.897,570.314,0.0
56466.0,STARLINK-6053,PAYLOAD,2024-01-03 03:19:27,14.98326301,0.0002693,70.001,352.7156,268.0797,92.0054,1.5917e-05,9.7e-07,0.0,0 STARLINK-6053,1 56466U 23064U   24003.13851063  .00000097  00000-0  15917-4 0  9991,2 56466  70.0010 352.7156 0002693 268.0797  92.0054 14.98326301 36292,6950.204,96.107,573.941,570.198,0.0
56466.0,STARLINK-6053,PAYLOAD,2024-01-03 08:07:51,14.98325692,0.0002663,70.0005,352.2103,263.5567,96.5289,-1.4491e-05,-2.66e-06,0.0,0 STARLINK-6053,1 56466U 23064U   24003.33879186 -.00000266  00000-0 -14491-4 0  9995,2 56466  70.0005 352.2103 0002663 263.5567  96.5289 14.98325692 35969,6950.206,96.107,573.922,570.22,0.0
56466.0,STARLINK-6053,PAYLOAD,2024-01-04 03:21:28,14.98332431,0.0002734,69.9998,350.1896,262.0088,98.0761,-5.5132e-05,-7.51e-06,0.0,0 STARLINK-6053,1 56466U 23064U   24004.13990773 -.00000751  00000-0 -55132-4 0  9996,2 56466  69.9998 350.1896 0002734 262.0088  98.0761 14.98332431 36449,6950.185,96.107,573.951,570.15,0.0
56466.0,STARLINK-6053,PAYLOAD,2024-01-04 08:09:52,14.98334319,0.0002633,70.0001,349.6849,257.819,102.2674,-4.1291e-05,-5.86e-06,0.0,0 STARLINK-6053,1 56466U 23064U   24004.34018554 -.00000586  00000-0 -41291-4 0  9994,2 56466  70.0001 349.6849 0002633 257.8190 102.2674 14.98334319 36114,6950.18,96.107,573.875,570.215,0.0
56466.0,STARLINK-6053,PAYLOAD,2024-01-04 22:35:04,14.98327132,0.0002687,70.0002,348.17,263.1299,96.9554,3.2144e-05,2.91e-06,0.0,0 STARLINK-6053,1 56466U 23064U   24004.94102741  .00000291  00000-0  32144-4 0  9990,2 56466  70.0002 348.1700 0002687 263.1299  96.9554 14.98327132 36205,6950.202,96.107,573.934,570.199,0.0
56466.0,STARLINK-6053,PAYLOAD,2024-01-05 03:23:29,14.9832644,0.0002703,70.0001,347.665,263.6799,96.4052,2.1279e-05,1.61e-06,0.0,0 STARLINK-6053,1 56466U 23064U   24005.14130845  .00000161  00000-0  21279-4 0  9992,2 56466  70.0001 347.6650 0002703 263.6799  96.4052 14.98326440 36592,6950.204,96.107,573.948,570.19,0.0
56466.0,STARLINK-6053,PAYLOAD,2024-01-05 08:11:53,14.98327299,0.000268,70.0002,347.1601,263.4076,96.6778,2.9952e-05,2.64e-06,0.0,0 STARLINK-6053,1 56466U 23064U   24005.34158793  .00000264  00000-0  29952-4 0  9996,2 56466  70.0002 347.1601 0002680 263.4076  96.6778 14.98327299 36268,6950.201,96.107,573.929,570.204,0.0
56466.0,STARLINK-6053,PAYLOAD,2024-01-05 22:37:05,14.98331369,0.0002683,70.0002,345.6454,262.8765,97.2088,6.7349e-06,-1.3e-07,0.0,0 STARLINK-6053,1 56466U 23064U   24005.94242596 -.00000013  00000-0  67349-5 0  9993,2 56466  70.0002 345.6454 0002683 262.8765  97.2088 14.98331369 36352,6950.189,96.107,573.918,570.189,0.0
56466.0,STARLINK-6053,PAYLOAD,2024-01-06 03:25:29,14.98331714,0.0002683,70.0002,345.1404,262.0229,98.0626,1.0278e-05,3e-07,0.0,0 STARLINK-6053,1 56466U 23064U   24006.14270530  .00000030  00000-0  10278-4 0  9991,2 56466  70.0002 345.1404 0002683 262.0229  98.0626 14.98331714 36743,6950.188,96.107,573.917,570.188,0.0
56466.0,STARLINK-6053,PAYLOAD,2024-01-06 08:13:53,14.98332362,0.0002679,70.0003,344.6354,262.5426,97.5429,1.7319e-05,1.14e-06,0.0,0 STARLINK-6053,1 56466U 23064U   24006.34298442  .00000114  00000-0  17319-4 0  9991,2 56466  70.0003 344.6354 0002679 262.5426  97.5429 14.98332362 36410,6950.186,96.107,573.913,570.189,0.0
56466.0,STARLINK-6053,PAYLOAD,2024-01-06 22:39:06,14.98329403,0.0002633,70.0004,343.1204,262.368,97.718,1.4409e-05,7.9e-07,0.0,0 STARLINK-6053,1 56466U 23064U   24006.94382569  .00000079  00000-0  14409-4 0  9998,2 56466  70.0004 343.1204 0002633 262.3680  97.7180 14.98329403 36507,6950.195,96.107,573.89,570.23,0.0
56466.0,STARLINK-6053,PAYLOAD,2024-01-07 03:27:30,14.98329379,0.0002633,70.0005,342.6155,262.2668,97.8192,1.3176e-05,6.4e-07,0.0,0 STARLINK-6053,1 56466U 23064U   24007.14410569  .00000064  00000-0  13176-4 0  9997,2 56466  70.0005 342.6155 0002633 262.2668  97.8192 14.98329379 36890,6950.195,96.107,573.89,570.23,0.0
56466.0,STARLINK-6053,PAYLOAD,2024-01-07 08:15:54,14.9833009,0.000263,70.0005,342.1104,262.6261,97.4599,1.9591e-05,1.41e-06,0.0,0 STARLINK-6053,1 56466U 23064U   24007.34438501  .00000141  00000-0  19591-4 0  9998,2 56466  70.0005 342.1104 0002630 262.6261  97.4599 14.98330090 36562,6950.193,96.107,573.886,570.23,0.0
56466.0,STARLINK-6053,PAYLOAD,2024-01-07 22:41:07,14.98331109,0.0002595,70.0006,340.5957,261.6929,98.3936,-1.3874e-05,-2.58e-06,0.0,0 STARLINK-6053,1 56466U 23064U   24007.94522481 -.00000258  00000-0 -13874-4 0  9994,2 56466  70.0006 340.5957 0002595 261.6929  98.3936 14.98331109 36658,6950.189,96.107,573.858,570.251,0.0
56466.0,STARLINK-6053,PAYLOAD,2024-01-08 03:29:31,14.98329983,0.0002617,70.0006,340.091,261.7633,98.3229,-2.7702e-05,-4.23e-06,0.0,0 STARLINK-6053,1 56466U 23064U   24008.14550575 -.00000423  00000-0 -27702-4 0  9991,2 56466  70.0006 340.0910 0002617 261.7633  98.3229 14.98329983 37046,6950.193,96.107,573.877,570.239,0.0
56466.0,STARLINK-6053,PAYLOAD,2024-01-08 08:17:55,14.98330387,0.0002628,70.0005,339.5854,263.2662,96.8197,-1.9993e-05,-3.31e-06,0.0,0 STARLINK-6053,1 56466U 23064U   24008.34578525 -.00000331  00000-0 -19993-4 0  9999,2 56466  70.0005 339.5854 0002628 263.2662  96.8197 14.98330387 36716,6950.192,96.107,573.883,570.23,0.0
56466.0,STARLINK-6053,PAYLOAD,2024-01-08 22:43:08,14.98330338,0.0002653,70.0003,338.0704,263.6166,96.4691,-2.633e-06,-1.24e-06,0.0,0 STARLINK-6053,1 56466U 23064U   24008.94662442 -.00000124  00000-0 -26330-5 0  9991,2 56466  70.0003 338.0704 0002653 263.6166  96.4691 14.98330338 36804,6950.192,96.107,573.901,570.213,0.0
56466.0,STARLINK-6053,PAYLOAD,2024-01-09 03:31:32,14.98330022,0.0002661,70.0004,337.5655,263.6784,96.4072,-6.1781e-06,-1.67e-06,0.0,0 STARLINK-6053,1 56466U 23064U   24009.14690462 -.00000167  00000-0 -61781-5 0  9993,2 56466  70.0004 337.5655 0002661 263.6784  96.4072 14.98330022 37195,6950.193,96.107,573.907,570.208,0.0
56466.0,STARLINK-6053,PAYLOAD,2024-01-09 08:19:56,14.98332235,0.000264,70.0004,337.0603,263.4032,96.6826,2.0324e-05,1.5e-06,0.0,0 STARLINK-6053,1 56466U 23064U   24009.34718230  .00000150  00000-0  20324-4 0  9996,2 56466  70.0004 337.0603 0002640 263.4032  96.6826 14.98332235 36864,6950.186,96.107,573.886,570.216,0.0
56466.0,STARLINK-6053,PAYLOAD,2024-01-09 22:45:09,14.98330733,0.0002634,70.0004,335.5451,262.8558,97.2301,2.7564e-05,2.36e-06,0.0,0 STARLINK-6053,1 56466U 23064U   24009.94802208  .00000236  00000-0  27564-4 0  9999,2 56466  70.0004 335.5451 0002634 262.8558  97.2301 14.98330733 36953,6950.191,96.107,573.886,570.225,0.0
56466.0,STARLINK-6053,PAYLOAD,2024-01-10 03:33:33,14.98330045,0.0002643,70.0004,335.0404,260.7786,99.3074,1.7371e-05,1.14e-06,0.0,0 STARLINK-6053,1 56466U 23064U   24010.14830258  .00000114  00000-0  17371-4 0  9999,2 56466  70.0004 335.0404 0002643 260.7786  99.3074 14.98330045 37346,6950.193,96.107,573.895,570.221,0.0
56466.0,STARLINK-6053,PAYLOAD,2024-01-10 06:45:49,14.98331691,0.0002611,70.0005,334.7039,259.5895,100.497,3.7065e-05,3.49e-06,0.0,0 STARLINK-6053,1 56466U 23064U   24010.28182078  .00000349  00000-0  37065-4 0  9996,2 56466  70.0005 334.7039 0002611 259.5895 100.4970 14.98331691 37009,6950.188,96.107,573.867,570.238,0.0
56466.0,STARLINK-6053,PAYLOAD,2024-01-11 03:35:34,14.98326157,0.0002518,70.0011,332.517,251.2143,108.8743,-4.4189e-05,-6.2e-06,0.0,0 STARLINK-6053,1 56466U 23064U   24011.14970644 -.00000620  00000-0 -44189-4 0  9995,2 56466  70.0011 332.5170 0002518 251.2143 108.8743 14.98326157 37493,6950.205,96.107,573.82,570.32,0.0
56466.0,STARLINK-6053,PAYLOAD,2024-01-11 06:47:51,14.98317546,0.0002798,69.9999,332.1775,267.8598,92.224,-0.00014965,-1.877e-05,0.0,0 STARLINK-6053,1 56466U 23064U   24011.28323619 -.00001877  00000-0 -14965-3 0  9997,2 56466  69.9999 332.1775 0002798 267.8598  92.2240 14.98317546 37512,6950.231,96.108,574.041,570.152,0.0
56466.0,STARLINK-6053,PAYLOAD,2024-01-11 21:13:04,14.98319677,0.0002853,69.9996,330.6623,268.4228,91.6604,-7.4123e-05,-9.77e-06,0.0,0 STARLINK-6053,1 56466U 23064U   24011.88407574 -.00000977  00000-0 -74123-4 0  9999,2 56466  69.9996 330.6623 0002853 268.4228  91.6604 14.98319677 37247,6950.225,96.108,574.073,570.107,0.0
56466.0,STARLINK-6053,PAYLOAD,2024-01-12 03:37:36,14.98325552,0.0002631,69.9999,329.9881,264.1743,95.9116,-2.8821e-05,-4.37e-06,0.0,0 STARLINK-6053,1 56466U 23064U   24012.15111227 -.00000437  00000-0 -28821-4 0  9992,2 56466  69.9999 329.9881 0002631 264.1743  95.9116 14.98325552 37644,6950.207,96.107,573.9,570.243,0.0
56466.0,STARLINK-6053,PAYLOAD,2024-01-12 06:49:51,14.98330403,0.000242,70.0007,329.6538,256.4378,103.6512,3.7414e-05,3.54e-06,0.0,0 STARLINK-6053,1 56466U 23064U   24012.28462740  .00000354  00000-0  37414-4 0  9999,2 56466  70.0007 329.6538 0002420 256.4378 103.6512 14.98330403 37667,6950.192,96.107,573.739,570.375,0.0
56466.0,STARLINK-6053,PAYLOAD,2024-01-12 22:51:12,14.98329404,0.0002563,69.9997,327.9681,260.8626,99.2243,9.0787e-05,9.9e-06,0.0,0 STARLINK-6053,1 56466U 23064U   24012.95222577  .00000990  00000-0  90787-4 0  9993,2 56466  69.9997 327.9681 0002563 260.8626  99.2243 14.98329404 37407,6950.195,96.107,573.841,570.278,0.0
